H1 CPF 01  gfz 2022 06 11 00  6621 terrasarx 
H2 0702601  6201 31698    2022 06 11 00 59 42 2022 06 16 00 00 42   120 1 1  0 0 0
H9
10 0 59741  36702.000000  0   -1981516.541   2032677.769  -6283364.148
10 0 59741  36822.000000  0   -2283539.986   2797472.033  -5873344.197
10 0 59741  36942.000000  0   -2532945.714   3518560.850  -5360705.896
10 0 59741  37062.000000  0   -2726248.886   4182425.073  -4754318.501
10 0 59741  37182.000000  0   -2861156.176   4776459.889  -4064701.682
10 0 59741  37302.000000  0   -2936592.180   5289219.444  -3303851.513
10 0 59741  37422.000000  0   -2952700.874   5710643.495  -2485039.471
10 0 59741  37542.000000  0   -2910823.465   6032264.648  -1622586.734
10 0 59741  37662.000000  0   -2813450.601   6247388.386   -731613.223
10 0 59741  37782.000000  0   -2664150.631   6351238.717    172229.857
10 0 59741  37902.000000  0   -2467477.200   6341071.197   1073040.292
10 0 59741  38022.000000  0   -2228853.825   6216243.881   1954956.465
10 0 59741  38142.000000  0   -1954439.593   5978242.452   2802446.570
10 0 59741  38262.000000  0   -1650981.614   5630663.050   3600589.428
10 0 59741  38382.000000  0   -1325657.906   5179153.711   4335342.400
10 0 59741  38502.000000  0    -985914.248   4631315.329   4993792.157
10 0 59741  38622.000000  0    -639297.036   3996563.913   5564381.945
10 0 59741  38742.000000  0    -293289.335   3285960.303   6037110.913
10 0 59741  38862.000000  0      44847.276   2512008.971   6403705.206
10 0 59741  38982.000000  0     368222.310   1688432.119   6657756.110
10 0 59741  39102.000000  0     670454.702    829922.649   6794826.663
10 0 59741  39222.000000  0     945796.938    -48119.617   6812523.290
10 0 59741  39342.000000  0    1189243.176   -929862.794   6710535.436
10 0 59741  39462.000000  0    1396619.920  -1799328.088   6490641.497
10 0 59741  39582.000000  0    1564657.848  -2640678.800   6156680.204
10 0 59741  39702.000000  0    1691043.586  -3438510.056   5714488.063
10 0 59741  39822.000000  0    1774450.225  -4178133.683   5171802.193
10 0 59741  39942.000000  0    1814546.809  -4845851.745   4538130.182
10 0 59741  40062.000000  0    1811987.304  -5429216.672   3824590.353
10 0 59741  40182.000000  0    1768378.090  -5917273.435   3043719.718
10 0 59741  40302.000000  0    1686223.156  -6300773.684   2209253.045
10 0 59741  40422.000000  0    1568850.526  -6572359.117   1335879.867
10 0 59741  40542.000000  0    1420320.620  -6726710.851    438981.667
10 0 59741  40662.000000  0    1245318.048  -6760659.266   -465646.041
10 0 59741  40782.000000  0    1049028.896  -6673251.716  -1362082.597
10 0 59741  40902.000000  0     837007.837  -6465771.051  -2234572.543
10 0 59741  41022.000000  0     615039.014  -6141709.550  -3067808.785
10 0 59741  41142.000000  0     388995.286  -5706700.704  -3847205.355
10 0 59741  41262.000000  0     164697.439  -5168409.281  -4559154.246
10 0 59741  41382.000000  0     -52222.858  -4536382.900  -5191259.734
10 0 59741  41502.000000  0    -256452.461  -3821871.256  -5732547.471
10 0 59741  41622.000000  0    -443116.013  -3037616.119  -6173645.897
10 0 59741  41742.000000  0    -607882.499  -2197617.621  -6506937.413
10 0 59741  41862.000000  0    -747057.619  -1316881.622  -6726678.401
10 0 59741  41982.000000  0    -857660.440   -411153.286  -6829088.363
10 0 59741  42102.000000  0    -937482.937    503360.565  -6812407.868
10 0 59741  42222.000000  0    -985131.902   1410274.420  -6676924.304
10 0 59741  42342.000000  0   -1000052.832   2293310.116  -6424967.398
10 0 59741  42462.000000  0    -982535.280   3136581.773  -6060874.080
10 0 59741  42582.000000  0    -933699.684   3924878.142  -5590922.958
10 0 59741  42702.000000  0    -855465.632   4643936.225  -5023236.203
10 0 59741  42822.000000  0    -750502.193   5280702.635  -4367650.997
10 0 59741  42942.000000  0    -622161.201   5823577.931  -3635559.176
10 0 59741  43062.000000  0    -474394.013   6262637.347  -2839717.310
10 0 59741  43182.000000  0    -311653.333   6589823.922  -1994030.367
10 0 59741  43302.000000  0    -138782.424   6799109.107  -1113310.611
10 0 59741  43422.000000  0      39106.098   6886615.644   -213016.405
10 0 59741  43542.000000  0     216759.340   6850699.188    691024.200
10 0 59741  43662.000000  0     388917.501   6691985.765   1582899.938
10 0 59741  43782.000000  0     550447.241   6413362.199   2446905.995
10 0 59741  43902.000000  0     696471.248   6019920.324   3267828.181
10 0 59741  44022.000000  0     822491.766   5518858.966   4031217.222
10 0 59741  44142.000000  0     924507.054   4919346.380   4723648.099
10 0 59741  44262.000000  0     999113.022   4232339.796   5332961.752
10 0 59741  44382.000000  0    1043591.218   3470373.335   5848473.260
10 0 59741  44502.000000  0    1055981.654   2647322.100   6261154.991
10 0 59741  44622.000000  0    1035136.414   1778142.748   6563789.520
10 0 59741  44742.000000  0     980754.940    878597.041   6751090.039
10 0 59741  44862.000000  0     893400.150    -35036.133   6819786.204
10 0 59741  44982.000000  0     774495.024   -946253.897   6768677.974
10 0 59741  45102.000000  0     626299.358  -1838627.359   6598656.514
10 0 59741  45222.000000  0     451867.001  -2696097.552   6312689.898
10 0 59741  45342.000000  0     254984.297  -3503266.134   5915774.418
10 0 59741  45462.000000  0      40091.307  -4245673.001   5414849.641
10 0 59741  45582.000000  0    -187812.483  -4910057.222   4818683.673
10 0 59741  45702.000000  0    -423276.970  -5484600.930   4137728.150
10 0 59741  45822.000000  0    -660524.245  -5959150.509   3383939.387
10 0 59741  45942.000000  0    -893581.976  -6325405.794   2570569.578
10 0 59741  46062.000000  0   -1116422.985  -6577074.598   1711932.649
10 0 59741  46182.000000  0   -1323108.767  -6709990.182    823149.473
10 0 59741  46302.000000  0   -1507935.027  -6722186.521    -80126.476
10 0 59741  46422.000000  0   -1665571.714  -6613927.357   -981994.026
10 0 59741  46542.000000  0   -1791195.658  -6387690.660  -1866592.934
10 0 59741  46662.000000  0   -1880612.881  -6048109.257  -2718390.408
10 0 59741  46782.000000  0   -1930367.701  -5601868.885  -3522460.082
10 0 59741  46902.000000  0   -1937835.416  -5057565.731  -4264746.787
10 0 59741  47022.000000  0   -1901296.234  -4425528.695  -4932310.697
10 0 59741  47142.000000  0   -1819989.520  -3717612.633  -5513547.181
10 0 59741  47262.000000  0   -1694147.614  -2946967.661  -5998380.361
10 0 59741  47382.000000  0   -1525008.460  -2127788.810  -6378428.184
10 0 59741  47502.000000  0   -1314806.993  -1275051.188  -6647135.774
10 0 59741  47622.000000  0   -1066746.608   -404237.218  -6799877.130
10 0 59741  47742.000000  0    -784951.061    468940.398  -6834025.849
10 0 59741  47862.000000  0    -474396.325   1328815.339  -6748994.771
10 0 59741  47982.000000  0    -140824.906   2160041.349  -6546244.720
10 0 59741  48102.000000  0     209356.293   2947859.302  -6229263.243
10 0 59741  48222.000000  0     569195.639   3678356.169  -5803512.560
10 0 59741  48342.000000  0     931330.693   4338709.671  -5276343.894
10 0 59741  48462.000000  0    1288133.682   4917415.295  -4656882.138
10 0 59741  48582.000000  0    1631867.657   5404493.671  -3955879.274
10 0 59741  48702.000000  0    1954849.885   5791671.504  -3185536.621
10 0 59741  48822.000000  0    2249618.740   6072532.800  -2359299.788
10 0 59741  48942.000000  0    2509101.107   6242637.350  -1491627.683
10 0 59741  49062.000000  0    2726775.815   6299601.748   -597738.429
10 0 59741  49182.000000  0    2896828.560   6243139.193    306662.361
10 0 59741  49302.000000  0    3014294.247   6075056.944   1205664.120
10 0 59741  49422.000000  0    3075183.218   5799212.552   2083438.846
10 0 59741  49542.000000  0    3076587.990   5421429.002   2924528.191
10 0 59741  49662.000000  0    3016768.070   4949370.340   3714123.567
10 0 59741  49782.000000  0    2895211.066   4392381.716   4438332.847
10 0 59741  49902.000000  0    2712666.288   3761297.048   5084430.154
10 0 59741  50022.000000  0    2471150.139   3068218.209   5641078.434
10 0 59741  50142.000000  0    2173927.869   2326276.274   6098523.383
10 0 59741  50262.000000  0    1825470.213   1549377.988   6448760.357
10 0 59741  50382.000000  0    1431384.184    751940.187   6685668.826
10 0 59741  50502.000000  0     998320.859    -51379.237   6805111.866
10 0 59741  50622.000000  0     533862.584   -845949.251   6805004.519
10 0 59741  50742.000000  0      46389.972  -1617432.454   6685349.092
10 0 59741  50862.000000  0    -455069.495  -2352043.603   6448234.732
10 0 59741  50982.000000  0    -961008.355  -3036796.395   6097802.371
10 0 59741  51102.000000  0   -1461617.049  -3659733.440   5640175.078
10 0 59741  51222.000000  0   -1946971.776  -4210137.037   5083358.231
10 0 59741  51342.000000  0   -2407231.753  -4678719.296   4437107.784
10 0 59741  51462.000000  0   -2832841.059  -5057786.943   3712765.016
10 0 59741  51582.000000  0   -3214728.805  -5341375.639   2923059.141
10 0 59741  51702.000000  0   -3544502.449  -5525349.613   2081882.836
10 0 59741  51822.000000  0   -3814631.234  -5607466.187   1204045.400
10 0 59741  51942.000000  0   -4018615.492  -5587402.698    305006.589
10 0 59741  52062.000000  0   -4151136.919  -5466744.634   -599402.980
10 0 59741  52182.000000  0   -4208186.022  -5248935.356  -1493269.722
10 0 59741  52302.000000  0   -4187162.673  -4939187.311  -2360886.542
10 0 59741  52422.000000  0   -4086947.413  -4544357.589  -3187036.217
10 0 59741  52542.000000  0   -3907941.873  -4072792.202  -3957262.277
10 0 59741  52662.000000  0   -3652078.235  -3534144.158  -4658121.919
10 0 59741  52782.000000  0   -3322798.529  -2939170.159  -5277417.198
10 0 59741  52902.000000  0   -2925004.378  -2299510.403  -5804400.281
10 0 59741  53022.000000  0   -2464979.454  -1627457.710  -6229950.325
10 0 59741  53142.000000  0   -1950285.796   -935719.921  -6546721.098
99
